SL-16 R/B               
1 22803U 93059B   26070.24143424 -.00000117  00000+0 -33997-4 0  9995
2 22803  70.9928   7.8535 0018461 214.3372 145.6560 14.17231416679753
ARIANE 40 R/B           
1 22830U 93061H   26070.16501389  .00000233  00000+0  10120-3 0  9996
2 22830  98.4912 139.0235 0009570 280.2350  79.7755 14.32861856694311
COSMOS 2278             
1 23087U 94023A   26070.29507769  .00000047  00000+0  49427-4 0  9998
2 23087  71.0553 171.7391 0008159   9.9971 350.1312 14.14379365645036
SL-16 R/B               
1 23088U 94023B   26070.27012793 -.00000236  00000+0 -97399-4 0  9998
2 23088  70.9986  67.5677 0005698 284.0299  76.0190 14.15011278646315
SL-16 R/B               
1 23343U 94074B   26070.07169470  .00000561  00000+0  81763-4 0  9998
2 23343  97.7108 100.8334 0005885 205.2630 179.6850 14.79409736687458
SL-16 R/B               
1 23405U 94077B   26070.18047941  .00000049  00000+0  49476-4 0  9996
2 23405  70.9853 349.3531 0003016 210.2295 149.8654 14.15561390616440
ARIANE 40+ R/B          
1 23561U 95021B   26070.19898777  .00000343  00000+0  12334-3 0  9990
2 23561  98.4493 141.6610 0007684 132.4745 248.5694 14.39773709619460
SL-16 R/B               
1 23705U 95058B   26070.32888548  .00000328  00000+0  19202-3 0  9994
2 23705  71.0223 176.8138 0010718 122.8037 237.4120 14.15496428568088
SL-16 R/B               
1 24298U 96051B   26070.29914136  .00000088  00000+0  74394-4 0  9992
2 24298  70.7603 171.8321 0014965 145.6481 214.5610 14.12416126521877
ORBVIEW 2 (SEASTAR)     
1 24883U 97037A   26070.16044238  .00000360  00000+0  14128-3 0  9991
2 24883  98.8571 234.5112 0003062  68.9544 291.1968 14.35496134508683
SL-16 R/B               
1 25400U 98043G   26070.27519178  .00000096  00000+0  59087-4 0  9997
2 25400  98.8254  23.6498 0010136  16.0530 344.0968 14.26050278439215
SL-16 R/B               
1 25407U 98045B   26070.05647564  .00000241  00000+0  14589-3 0  9992
2 25407  71.0119 178.6999 0006841   5.8978 354.2225 14.16190639427291
ISS (ZARYA)             
1 25544U 98067A   26070.19118651  .00009215  00000+0  17770-3 0  9998
2 25544  51.6325  64.9326 0007932 179.9008 180.1983 15.48575655556567
CZ-4B R/B               
1 25732U 99025C   26070.07023027  .00000045  00000+0  42571-4 0  9991
2 25732  98.6623 114.3191 0036675 342.6215  46.9601 14.18265542388367
OKEAN-O                 
1 25860U 99039A   26070.13902773  .00000787  00000+0  11012-3 0  9997
2 25860  97.9439 130.0159 0001217  70.2963 289.8380 14.80337832434605
SL-16 R/B               
1 25861U 99039B   26070.11752520  .00000674  00000+0  92216-4 0  9990
2 25861  97.9964 129.2122 0013550 250.9100 109.0645 14.81733787437073
DELTA 2 R/B             
1 25876U 99041E   26070.06999479  .00001302  00000+0  24773-3 0  9990
2 25876  51.7629 295.7675 0502421 352.5015   6.8599 14.11842120363223
