[{"OBJECT_NAME":"SL-16 R/B","OBJECT_ID":"1993-059B","EPOCH":"2026-03-11T05:47:39.918336","MEAN_MOTION":14.17231416,"ECCENTRICITY":0.00184616,"INCLINATION":70.9928,"RA_OF_ASC_NODE":7.8535,"ARG_OF_PERICENTER":214.3372,"MEAN_ANOMALY":145.656,"EPHEMERIS_TYPE":0,"CLASSIFICATION_TYPE":"U","NORAD_CAT_ID":22803,"ELEMENT_SET_NO":999,"REV_AT_EPOCH":67975,"BSTAR":-3.3997424e-5,"MEAN_MOTION_DOT":-1.17e-6,"MEAN_MOTION_DDOT":0},{"OBJECT_NAME":"ARIANE 40 R/B","OBJECT_ID":"1993-061H","EPOCH":"2026-03-11T03:57:37.200096","MEAN_MOTION":14.32861856,"ECCENTRICITY":0.00095707,"INCLINATION":98.4912,"RA_OF_ASC_NODE":139.0235,"ARG_OF_PERICENTER":280.235,"MEAN_ANOMALY":79.7755,"EPHEMERIS_TYPE":0,"CLASSIFICATION_TYPE":"U","NORAD_CAT_ID":22830,"ELEMENT_SET_NO":999,"REV_AT_EPOCH":69431,"BSTAR":0.00010120363,"MEAN_MOTION_DOT":2.33e-6,"MEAN_MOTION_DDOT":0},{"OBJECT_NAME":"COSMOS 2278","OBJECT_ID":"1994-023A","EPOCH":"2026-03-11T07:04:54.712416","MEAN_MOTION":14.14379365,"ECCENTRICITY":0.00081592,"INCLINATION":71.0553,"RA_OF_ASC_NODE":171.7391,"ARG_OF_PERICENTER":9.9971,"MEAN_ANOMALY":350.1312,"EPHEMERIS_TYPE":0,"CLASSIFICATION_TYPE":"U","NORAD_CAT_ID":23087,"ELEMENT_SET_NO":999,"REV_AT_EPOCH":64503,"BSTAR":4.942749e-5,"MEAN_MOTION_DOT":4.7e-7,"MEAN_MOTION_DDOT":0},{"OBJECT_NAME":"SL-16 R/B","OBJECT_ID":"1994-023B","EPOCH":"2026-03-11T06:28:59.053152","MEAN_MOTION":14.15011278,"ECCENTRICITY":0.00056986,"INCLINATION":70.9986,"RA_OF_ASC_NODE":67.5677,"ARG_OF_PERICENTER":284.0299,"MEAN_ANOMALY":76.019,"EPHEMERIS_TYPE":0,"CLASSIFICATION_TYPE":"U","NORAD_CAT_ID":23088,"ELEMENT_SET_NO":999,"REV_AT_EPOCH":64631,"BSTAR":-9.7399323e-5,"MEAN_MOTION_DOT":-2.36e-6,"MEAN_MOTION_DDOT":0},{"OBJECT_NAME":"SL-16 R/B","OBJECT_ID":"1994-074B","EPOCH":"2026-03-11T01:43:14.422080","MEAN_MOTION":14.79409736,"ECCENTRICITY":0.00058853,"INCLINATION":97.7108,"RA_OF_ASC_NODE":100.8334,"ARG_OF_PERICENTER":205.263,"MEAN_ANOMALY":179.685,"EPHEMERIS_TYPE":0,"CLASSIFICATION_TYPE":"U","NORAD_CAT_ID":23343,"ELEMENT_SET_NO":999,"REV_AT_EPOCH":68745,"BSTAR":8.1763274e-5,"MEAN_MOTION_DOT":5.61e-6,"MEAN_MOTION_DDOT":0},{"OBJECT_NAME":"SL-16 R/B","OBJECT_ID":"1994-077B","EPOCH":"2026-03-11T04:19:53.421024","MEAN_MOTION":14.1556139,"ECCENTRICITY":0.0003016,"INCLINATION":70.9853,"RA_OF_ASC_NODE":349.3531,"ARG_OF_PERICENTER":210.2295,"MEAN_ANOMALY":149.8654,"EPHEMERIS_TYPE":0,"CLASSIFICATION_TYPE":"U","NORAD_CAT_ID":23405,"ELEMENT_SET_NO":999,"REV_AT_EPOCH":61644,"BSTAR":4.9476448e-5,"MEAN_MOTION_DOT":4.9e-7,"MEAN_MOTION_DDOT":0},{"OBJECT_NAME":"ARIANE 40+ R/B","OBJECT_ID":"1995-021B","EPOCH":"2026-03-11T04:46:32.543328","MEAN_MOTION":14.39773709,"ECCENTRICITY":0.00076841,"INCLINATION":98.4493,"RA_OF_ASC_NODE":141.661,"ARG_OF_PERICENTER":132.4745,"MEAN_ANOMALY":248.5694,"EPHEMERIS_TYPE":0,"CLASSIFICATION_TYPE":"U","NORAD_CAT_ID":23561,"ELEMENT_SET_NO":999,"REV_AT_EPOCH":61946,"BSTAR":0.00012333577,"MEAN_MOTION_DOT":3.43e-6,"MEAN_MOTION_DDOT":0},{"OBJECT_NAME":"SL-16 R/B","OBJECT_ID":"1995-058B","EPOCH":"2026-03-11T07:53:35.705472","MEAN_MOTION":14.15496428,"ECCENTRICITY":0.0010718,"INCLINATION":71.0223,"RA_OF_ASC_NODE":176.8138,"ARG_OF_PERICENTER":122.8037,"MEAN_ANOMALY":237.412,"EPHEMERIS_TYPE":0,"CLASSIFICATION_TYPE":"U","NORAD_CAT_ID":23705,"ELEMENT_SET_NO":999,"REV_AT_EPOCH":56808,"BSTAR":0.0001920181,"MEAN_MOTION_DOT":3.28e-6,"MEAN_MOTION_DDOT":0},{"OBJECT_NAME":"SL-16 R/B","OBJECT_ID":"1996-051B","EPOCH":"2026-03-11T07:10:45.813504","MEAN_MOTION":14.12416126,"ECCENTRICITY":0.00149651,"INCLINATION":70.7603,"RA_OF_ASC_NODE":171.8321,"ARG_OF_PERICENTER":145.6481,"MEAN_ANOMALY":214.561,"EPHEMERIS_TYPE":0,"CLASSIFICATION_TYPE":"U","NORAD_CAT_ID":24298,"ELEMENT_SET_NO":999,"REV_AT_EPOCH":52187,"BSTAR":7.4394351e-5,"MEAN_MOTION_DOT":8.8e-7,"MEAN_MOTION_DDOT":0},{"OBJECT_NAME":"ORBVIEW 2 (SEASTAR)","OBJECT_ID":"1997-037A","EPOCH":"2026-03-11T03:51:02.221632","MEAN_MOTION":14.35496134,"ECCENTRICITY":0.00030624,"INCLINATION":98.8571,"RA_OF_ASC_NODE":234.5112,"ARG_OF_PERICENTER":68.9544,"MEAN_ANOMALY":291.1968,"EPHEMERIS_TYPE":0,"CLASSIFICATION_TYPE":"U","NORAD_CAT_ID":24883,"ELEMENT_SET_NO":999,"REV_AT_EPOCH":50868,"BSTAR":0.00014128362,"MEAN_MOTION_DOT":3.6e-6,"MEAN_MOTION_DDOT":0},{"OBJECT_NAME":"SL-16 R/B","OBJECT_ID":"1998-043G","EPOCH":"2026-03-11T06:36:16.569792","MEAN_MOTION":14.26050278,"ECCENTRICITY":0.00101361,"INCLINATION":98.8254,"RA_OF_ASC_NODE":23.6498,"ARG_OF_PERICENTER":16.053,"MEAN_ANOMALY":344.0968,"EPHEMERIS_TYPE":0,"CLASSIFICATION_TYPE":"U","NORAD_CAT_ID":25400,"ELEMENT_SET_NO":999,"REV_AT_EPOCH":43921,"BSTAR":5.9087416e-5,"MEAN_MOTION_DOT":9.6e-7,"MEAN_MOTION_DDOT":0},{"OBJECT_NAME":"SL-16 R/B","OBJECT_ID":"1998-045B","EPOCH":"2026-03-11T01:21:19.495296","MEAN_MOTION":14.16190639,"ECCENTRICITY":0.00068417,"INCLINATION":71.0119,"RA_OF_ASC_NODE":178.6999,"ARG_OF_PERICENTER":5.8978,"MEAN_ANOMALY":354.2225,"EPHEMERIS_TYPE":0,"CLASSIFICATION_TYPE":"U","NORAD_CAT_ID":25407,"ELEMENT_SET_NO":999,"REV_AT_EPOCH":42729,"BSTAR":0.00014589294,"MEAN_MOTION_DOT":2.41e-6,"MEAN_MOTION_DDOT":0},{"OBJECT_NAME":"ISS (ZARYA)","OBJECT_ID":"1998-067A","EPOCH":"2026-03-11T04:35:18.514464","MEAN_MOTION":15.48575655,"ECCENTRICITY":0.00079324,"INCLINATION":51.6325,"RA_OF_ASC_NODE":64.9326,"ARG_OF_PERICENTER":179.9008,"MEAN_ANOMALY":180.1983,"EPHEMERIS_TYPE":0,"CLASSIFICATION_TYPE":"U","NORAD_CAT_ID":25544,"ELEMENT_SET_NO":999,"REV_AT_EPOCH":55656,"BSTAR":0.00017769709,"MEAN_MOTION_DOT":9.215e-5,"MEAN_MOTION_DDOT":0},{"OBJECT_NAME":"CZ-4B R/B","OBJECT_ID":"1999-025C","EPOCH":"2026-03-11T01:41:07.895328","MEAN_MOTION":14.18265542,"ECCENTRICITY":0.00366752,"INCLINATION":98.6623,"RA_OF_ASC_NODE":114.3191,"ARG_OF_PERICENTER":342.6215,"MEAN_ANOMALY":46.9601,"EPHEMERIS_TYPE":0,"CLASSIFICATION_TYPE":"U","NORAD_CAT_ID":25732,"ELEMENT_SET_NO":999,"REV_AT_EPOCH":38836,"BSTAR":4.2571175e-5,"MEAN_MOTION_DOT":4.5e-7,"MEAN_MOTION_DDOT":0},{"OBJECT_NAME":"OKEAN-O","OBJECT_ID":"1999-039A","EPOCH":"2026-03-11T03:20:11.995872","MEAN_MOTION":14.80337832,"ECCENTRICITY":0.0001217,"INCLINATION":97.9439,"RA_OF_ASC_NODE":130.0159,"ARG_OF_PERICENTER":70.2963,"MEAN_ANOMALY":289.838,"EPHEMERIS_TYPE":0,"CLASSIFICATION_TYPE":"U","NORAD_CAT_ID":25860,"ELEMENT_SET_NO":999,"REV_AT_EPOCH":43460,"BSTAR":0.00011011825,"MEAN_MOTION_DOT":7.87e-6,"MEAN_MOTION_DDOT":0},{"OBJECT_NAME":"SL-16 R/B","OBJECT_ID":"1999-039B","EPOCH":"2026-03-11T02:49:14.177280","MEAN_MOTION":14.81733787,"ECCENTRICITY":0.00135509,"INCLINATION":97.9964,"RA_OF_ASC_NODE":129.2122,"ARG_OF_PERICENTER":250.91,"MEAN_ANOMALY":109.0645,"EPHEMERIS_TYPE":0,"CLASSIFICATION_TYPE":"U","NORAD_CAT_ID":25861,"ELEMENT_SET_NO":999,"REV_AT_EPOCH":43707,"BSTAR":9.2215856e-5,"MEAN_MOTION_DOT":6.74e-6,"MEAN_MOTION_DDOT":0},{"OBJECT_NAME":"DELTA 2 R/B","OBJECT_ID":"1999-041E","EPOCH":"2026-03-11T01:40:47.549856","MEAN_MOTION":14.1184212,"ECCENTRICITY":0.05024213,"INCLINATION":51.7629,"RA_OF_ASC_NODE":295.7675,"ARG_OF_PERICENTER":352.5015,"MEAN_ANOMALY":6.8599,"EPHEMERIS_TYPE":0,"CLASSIFICATION_TYPE":"U","NORAD_CAT_ID":25876,"ELEMENT_SET_NO":999,"REV_AT_EPOCH":36322,"BSTAR":0.00024773203,"MEAN_MOTION_DOT":1.302e-5,"MEAN_MOTION_DDOT":0}]
